CCSDS_OMM_VERS = 2.0
CREATION_DATE  = 
ORIGINATOR     = 

OBJECT_NAME    = STARLINK-36548
OBJECT_ID      = 2026-020A
CENTER_NAME    = EARTH
REF_FRAME      = TEME
TIME_SYSTEM    = UTC
MEAN_ELEMENT_THEORY = SGP/SGP4

EPOCH          = 2026-02-14T02:40:59.122560
MEAN_MOTION    = 15.76427144
ECCENTRICITY   = .00019561
INCLINATION    = 42.9981
RA_OF_ASC_NODE = 285.5799
ARG_OF_PERICENTER = 266.5031
MEAN_ANOMALY   = 93.5615

EPHEMERIS_TYPE = 0
CLASSIFICATION_TYPE = U
NORAD_CAT_ID   = 67617
ELEMENT_SET_NO = 999
REV_AT_EPOCH   = 236
BSTAR          = .10107382E-2
MEAN_MOTION_DOT = .167854E-2
MEAN_MOTION_DDOT = 0

CCSDS_OMM_VERS = 2.0
CREATION_DATE  = 
ORIGINATOR     = 

OBJECT_NAME    = STARLINK-36601
OBJECT_ID      = 2026-020B
CENTER_NAME    = EARTH
REF_FRAME      = TEME
TIME_SYSTEM    = UTC
MEAN_ELEMENT_THEORY = SGP/SGP4

EPOCH          = 2026-02-14T02:18:51.793920
MEAN_MOTION    = 15.82062334
ECCENTRICITY   = .0001517
INCLINATION    = 42.9970
RA_OF_ASC_NODE = 285.4554
ARG_OF_PERICENTER = 257.4417
MEAN_ANOMALY   = 102.6285

EPHEMERIS_TYPE = 0
CLASSIFICATION_TYPE = U
NORAD_CAT_ID   = 67618
ELEMENT_SET_NO = 999
REV_AT_EPOCH   = 236
BSTAR          = .10859437E-2
MEAN_MOTION_DOT = .234948E-2
MEAN_MOTION_DDOT = 0

CCSDS_OMM_VERS = 2.0
CREATION_DATE  = 
ORIGINATOR     = 

OBJECT_NAME    = STARLINK-36119
OBJECT_ID      = 2026-020C
CENTER_NAME    = EARTH
REF_FRAME      = TEME
TIME_SYSTEM    = UTC
MEAN_ELEMENT_THEORY = SGP/SGP4

EPOCH          = 2026-02-14T02:37:49.881504
MEAN_MOTION    = 15.76424772
ECCENTRICITY   = .00022149
INCLINATION    = 42.9987
RA_OF_ASC_NODE = 285.5620
ARG_OF_PERICENTER = 264.3369
MEAN_ANOMALY   = 95.7248

EPHEMERIS_TYPE = 0
CLASSIFICATION_TYPE = U
NORAD_CAT_ID   = 67619
ELEMENT_SET_NO = 999
REV_AT_EPOCH   = 236
BSTAR          = .9654589E-3
MEAN_MOTION_DOT = .160152E-2
MEAN_MOTION_DDOT = 0

CCSDS_OMM_VERS = 2.0
CREATION_DATE  = 
ORIGINATOR     = 

OBJECT_NAME    = STARLINK-36607
OBJECT_ID      = 2026-020D
CENTER_NAME    = EARTH
REF_FRAME      = TEME
TIME_SYSTEM    = UTC
MEAN_ELEMENT_THEORY = SGP/SGP4

EPOCH          = 2026-02-14T00:45:24.332832
MEAN_MOTION    = 15.82546214
ECCENTRICITY   = .00032308
INCLINATION    = 42.9973
RA_OF_ASC_NODE = 285.8278
ARG_OF_PERICENTER = 293.6328
MEAN_ANOMALY   = 66.4205

EPHEMERIS_TYPE = 0
CLASSIFICATION_TYPE = U
NORAD_CAT_ID   = 67620
ELEMENT_SET_NO = 999
REV_AT_EPOCH   = 235
BSTAR          = .28069914E-2
MEAN_MOTION_DOT = .653277E-2
MEAN_MOTION_DDOT = 0

CCSDS_OMM_VERS = 2.0
CREATION_DATE  = 
ORIGINATOR     = 

OBJECT_NAME    = STARLINK-36615
OBJECT_ID      = 2026-020E
CENTER_NAME    = EARTH
REF_FRAME      = TEME
TIME_SYSTEM    = UTC
MEAN_ELEMENT_THEORY = SGP/SGP4

EPOCH          = 2026-02-14T08:00:01.999008
MEAN_MOTION    = 15.82049541
ECCENTRICITY   = .0002086
INCLINATION    = 42.9983
RA_OF_ASC_NODE = 283.9875
ARG_OF_PERICENTER = 265.6255
MEAN_ANOMALY   = 11.8161

EPHEMERIS_TYPE = 0
CLASSIFICATION_TYPE = U
NORAD_CAT_ID   = 67621
ELEMENT_SET_NO = 999
REV_AT_EPOCH   = 363
BSTAR          = -.10186E-3
MEAN_MOTION_DOT = -.21964E-3
MEAN_MOTION_DDOT = 0

CCSDS_OMM_VERS = 2.0
CREATION_DATE  = 
ORIGINATOR     = 

OBJECT_NAME    = STARLINK-36614
OBJECT_ID      = 2026-020F
CENTER_NAME    = EARTH
REF_FRAME      = TEME
TIME_SYSTEM    = UTC
MEAN_ELEMENT_THEORY = SGP/SGP4

EPOCH          = 2026-02-14T12:00:01.999296
MEAN_MOTION    = 15.76342886
ECCENTRICITY   = .0002078
INCLINATION    = 42.9984
RA_OF_ASC_NODE = 283.1273
ARG_OF_PERICENTER = 266.8380
MEAN_ANOMALY   = 176.3989

EPHEMERIS_TYPE = 0
CLASSIFICATION_TYPE = U
NORAD_CAT_ID   = 67622
ELEMENT_SET_NO = 999
REV_AT_EPOCH   = 366
BSTAR          = .13851E-3
MEAN_MOTION_DOT = .22104E-3
MEAN_MOTION_DDOT = 0

CCSDS_OMM_VERS = 2.0
CREATION_DATE  = 
ORIGINATOR     = 

OBJECT_NAME    = STARLINK-36600
OBJECT_ID      = 2026-020G
CENTER_NAME    = EARTH
REF_FRAME      = TEME
TIME_SYSTEM    = UTC
MEAN_ELEMENT_THEORY = SGP/SGP4

EPOCH          = 2026-02-14T02:34:40.746720
MEAN_MOTION    = 15.76427384
ECCENTRICITY   = .00018882
INCLINATION    = 42.9986
RA_OF_ASC_NODE = 285.5445
ARG_OF_PERICENTER = 264.1665
MEAN_ANOMALY   = 95.8990

EPHEMERIS_TYPE = 0
CLASSIFICATION_TYPE = U
NORAD_CAT_ID   = 67623
ELEMENT_SET_NO = 999
REV_AT_EPOCH   = 236
BSTAR          = .98929802E-3
MEAN_MOTION_DOT = .164213E-2
MEAN_MOTION_DDOT = 0

CCSDS_OMM_VERS = 2.0
CREATION_DATE  = 
ORIGINATOR     = 

OBJECT_NAME    = STARLINK-36439
OBJECT_ID      = 2026-020H
CENTER_NAME    = EARTH
REF_FRAME      = TEME
TIME_SYSTEM    = UTC
MEAN_ELEMENT_THEORY = SGP/SGP4

EPOCH          = 2026-02-12T16:53:40.281216
MEAN_MOTION    = 15.81916579
ECCENTRICITY   = .00046735
INCLINATION    = 42.9975
RA_OF_ASC_NODE = 293.9383
ARG_OF_PERICENTER = 247.0452
MEAN_ANOMALY   = 112.9926

EPHEMERIS_TYPE = 0
CLASSIFICATION_TYPE = U
NORAD_CAT_ID   = 67624
ELEMENT_SET_NO = 999
REV_AT_EPOCH   = 214
BSTAR          = .25403322E-2
MEAN_MOTION_DOT = .568445E-2
MEAN_MOTION_DDOT = 0

CCSDS_OMM_VERS = 2.0
CREATION_DATE  = 
ORIGINATOR     = 

OBJECT_NAME    = STARLINK-36438
OBJECT_ID      = 2026-020J
CENTER_NAME    = EARTH
REF_FRAME      = TEME
TIME_SYSTEM    = UTC
MEAN_ELEMENT_THEORY = SGP/SGP4

EPOCH          = 2026-02-14T12:00:01.999296
MEAN_MOTION    = 15.76357332
ECCENTRICITY   = .0002009
INCLINATION    = 42.9983
RA_OF_ASC_NODE = 283.0963
ARG_OF_PERICENTER = 272.1668
MEAN_ANOMALY   = 183.5066

EPHEMERIS_TYPE = 0
CLASSIFICATION_TYPE = U
NORAD_CAT_ID   = 67625
ELEMENT_SET_NO = 999
REV_AT_EPOCH   = 366
BSTAR          = -.11778E-3
MEAN_MOTION_DOT = -.19615E-3
MEAN_MOTION_DDOT = 0

CCSDS_OMM_VERS = 2.0
CREATION_DATE  = 
ORIGINATOR     = 

OBJECT_NAME    = STARLINK-36436
OBJECT_ID      = 2026-020K
CENTER_NAME    = EARTH
REF_FRAME      = TEME
TIME_SYSTEM    = UTC
MEAN_ELEMENT_THEORY = SGP/SGP4

EPOCH          = 2026-02-14T00:39:43.274016
MEAN_MOTION    = 15.82439724
ECCENTRICITY   = .00037259
INCLINATION    = 42.9979
RA_OF_ASC_NODE = 285.7964
ARG_OF_PERICENTER = 284.9345
MEAN_ANOMALY   = 75.1114

EPHEMERIS_TYPE = 0
CLASSIFICATION_TYPE = U
NORAD_CAT_ID   = 67626
ELEMENT_SET_NO = 999
REV_AT_EPOCH   = 235
BSTAR          = .25681706E-2
MEAN_MOTION_DOT = .590324E-2
MEAN_MOTION_DDOT = 0

CCSDS_OMM_VERS = 2.0
CREATION_DATE  = 
ORIGINATOR     = 

OBJECT_NAME    = STARLINK-36502
OBJECT_ID      = 2026-020L
CENTER_NAME    = EARTH
REF_FRAME      = TEME
TIME_SYSTEM    = UTC
MEAN_ELEMENT_THEORY = SGP/SGP4

EPOCH          = 2026-02-14T00:40:46.435008
MEAN_MOTION    = 15.82084329
ECCENTRICITY   = .00014667
INCLINATION    = 42.9976
RA_OF_ASC_NODE = 285.8028
ARG_OF_PERICENTER = 297.0974
MEAN_ANOMALY   = 62.9748

EPHEMERIS_TYPE = 0
CLASSIFICATION_TYPE = U
NORAD_CAT_ID   = 67627
ELEMENT_SET_NO = 999
REV_AT_EPOCH   = 235
BSTAR          = .17277376E-2
MEAN_MOTION_DOT = .380957E-2
MEAN_MOTION_DDOT = 0

CCSDS_OMM_VERS = 2.0
CREATION_DATE  = 
ORIGINATOR     = 

OBJECT_NAME    = STARLINK-36532
OBJECT_ID      = 2026-020M
CENTER_NAME    = EARTH
REF_FRAME      = TEME
TIME_SYSTEM    = UTC
MEAN_ELEMENT_THEORY = SGP/SGP4

EPOCH          = 2026-02-14T00:37:55.591968
MEAN_MOTION    = 15.82094185
ECCENTRICITY   = .00021707
INCLINATION    = 42.9970
RA_OF_ASC_NODE = 285.7865
ARG_OF_PERICENTER = 255.1989
MEAN_ANOMALY   = 104.8642

EPHEMERIS_TYPE = 0
CLASSIFICATION_TYPE = U
NORAD_CAT_ID   = 67628
ELEMENT_SET_NO = 999
REV_AT_EPOCH   = 235
BSTAR          = .55288424E-3
MEAN_MOTION_DOT = .117919E-2
MEAN_MOTION_DDOT = 0

