STARLINK-36548          
1 67617U 26020A   26045.11179540  .00167854  00000+0  10107-2 0  9993
2 67617  42.9981 285.5799 0001956 266.5031  93.5615 15.76427144  2362
STARLINK-36601          
1 67618U 26020B   26045.09643280  .00234948  00000+0  10859-2 0  9991
2 67618  42.9970 285.4554 0001517 257.4417 102.6285 15.82062334  2367
STARLINK-36119          
1 67619U 26020C   26045.10960511  .00160152  00000+0  96546-3 0  9996
2 67619  42.9987 285.5620 0002214 264.3369  95.7248 15.76424772  2361
STARLINK-36607          
1 67620U 26020D   26045.03153163  .00653277  00000+0  28070-2 0  9998
2 67620  42.9973 285.8278 0003230 293.6328  66.4205 15.82546214  2359
STARLINK-36615          
1 67621U 26020E   26045.33335647 -.00021964  00000+0 -10186-3 0  9995
2 67621  42.9983 283.9875 0002086 265.6255  11.8161 15.82049541  3637
STARLINK-36614          
1 67622U 26020F   26045.50002314  .00022104  00000+0  13851-3 0  9994
2 67622  42.9984 283.1273 0002078 266.8380 176.3989 15.76342886  3665
STARLINK-36600          
1 67623U 26020G   26045.10741605  .00164213  00000+0  98930-3 0  9993
2 67623  42.9986 285.5445 0001888 264.1665  95.8990 15.76427384  2360
STARLINK-36439          
1 67624U 26020H   26043.70393844  .00568445  00000+0  25403-2 0  9995
2 67624  42.9975 293.9383 0004673 247.0452 112.9926 15.81916579  2143
STARLINK-36438          
1 67625U 26020J   26045.50002314 -.00019615  00000+0 -11778-3 0  9998
2 67625  42.9983 283.0963 0002009 272.1668 183.5066 15.76357332  3663
STARLINK-36436          
1 67626U 26020K   26045.02758419  .00590324  00000+0  25682-2 0  9997
2 67626  42.9979 285.7964 0003725 284.9345  75.1114 15.82439724  2356
STARLINK-36502          
1 67627U 26020L   26045.02831522  .00380957  00000+0  17277-2 0  9995
2 67627  42.9976 285.8028 0001466 297.0974  62.9748 15.82084329  2353
STARLINK-36532          
1 67628U 26020M   26045.02633787  .00117919  00000+0  55288-3 0  9990
2 67628  42.9970 285.7865 0002170 255.1989 104.8642 15.82094185  2350
